{
  "type": "FeatureCollection",
  "features": [
    {
      "type": "Feature",
      "properties": {
        "norad_id": 28054,
        "name": "DMSP 5D-3 F16 (USA 172)",
        "group": "weather",
        "lat": -80.55318046587573,
        "lon": 87.59556105161936,
        "alt_km": 847.1746376716937,
        "timestamp": "2025-12-23T16:57:11.987786+00:00",
        "meta_object_name": "DMSP 5D-3 F16 (USA 172)",
        "meta_object_id": "2003-048A",
        "meta_epoch": "2025-12-23T05:49:14.257632",
        "meta_mean_motion": 14.14427813,
        "meta_eccentricity": 0.00062564,
        "meta_inclination": 99.0038,
        "meta_ra_of_asc_node": 14.7818,
        "meta_arg_of_pericenter": 287.2268,
        "meta_mean_anomaly": 145.0004,
        "meta_ephemeris_type": 0,
        "meta_classification_type": "U",
        "meta_norad_cat_id": 28054,
        "meta_element_set_no": 999,
        "meta_rev_at_epoch": 14461,
        "meta_bstar": 8.0372641e-05,
        "meta_mean_motion_dot": 1.08e-06,
        "meta_mean_motion_ddot": 0,
        "tle_line1": "1 28054U 03048A   25357.24252613  .00000108  00000+0  80373-4 0  9994",
        "tle_line2": "2 28054  99.0038  14.7818 0006256 287.2268 145.0004 14.14427813144618"
      },
      "geometry": {
        "type": "Point",
        "coordinates": [
          87.59556105161936,
          -80.55318046587573
        ]
      }
    },
    {
      "type": "Feature",
      "properties": {
        "norad_id": 28912,
        "name": "METEOSAT-9 (MSG-2)",
        "group": "weather",
        "lat": -3.5654958970957624,
        "lon": 32.5659742617948,
        "alt_km": 35636.63855583662,
        "timestamp": "2025-12-23T16:57:11.987835+00:00",
        "meta_object_name": "METEOSAT-9 (MSG-2)",
        "meta_object_id": "2005-049B",
        "meta_epoch": "2025-12-22T18:31:08.664384",
        "meta_mean_motion": 1.00267705,
        "meta_eccentricity": 0.00617708,
        "meta_inclination": 8.9523,
        "meta_ra_of_asc_node": 55.8676,
        "meta_arg_of_pericenter": 281.9132,
        "meta_mean_anomaly": 76.5371,
        "meta_ephemeris_type": 0,
        "meta_classification_type": "U",
        "meta_norad_cat_id": 28912,
        "meta_element_set_no": 999,
        "meta_rev_at_epoch": 522,
        "meta_bstar": 0,
        "meta_mean_motion_dot": 1.44e-06,
        "meta_mean_motion_ddot": 0,
        "tle_line1": "1 28912U 05049B   25356.77162806  .00000144  00000+0  00000+0 0  9995",
        "tle_line2": "2 28912   8.9523  55.8676 0061770 281.9132  76.5371  1.00267705  5221"
      },
      "geometry": {
        "type": "Point",
        "coordinates": [
          32.5659742617948,
          -3.5654958970957624
        ]
      }
    },
    {
      "type": "Feature",
      "properties": {
        "norad_id": 29522,
        "name": "DMSP 5D-3 F17 (USA 191)",
        "group": "weather",
        "lat": -51.83986268302051,
        "lon": 171.5787434401125,
        "alt_km": 844.0695859039861,
        "timestamp": "2025-12-23T16:57:11.987853+00:00",
        "meta_object_name": "DMSP 5D-3 F17 (USA 191)",
        "meta_object_id": "2006-050A",
        "meta_epoch": "2025-12-23T02:16:48.630720",
        "meta_mean_motion": 14.1492397,
        "meta_eccentricity": 0.00098459,
        "meta_inclination": 98.7391,
        "meta_ra_of_asc_node": 2.2685,
        "meta_arg_of_pericenter": 193.8687,
        "meta_mean_anomaly": 166.2218,
        "meta_ephemeris_type": 0,
        "meta_classification_type": "U",
        "meta_norad_cat_id": 29522,
        "meta_element_set_no": 999,
        "meta_rev_at_epoch": 98751,
        "meta_bstar": 9.605131e-05,
        "meta_mean_motion_dot": 1.42e-06,
        "meta_mean_motion_ddot": 0,
        "tle_line1": "1 29522U 06050A   25357.09500730  .00000142  00000+0  96051-4 0  9998",
        "tle_line2": "2 29522  98.7391   2.2685 0009845 193.8687 166.2218 14.14923970987516"
      },
      "geometry": {
        "type": "Point",
        "coordinates": [
          171.5787434401125,
          -51.83986268302051
        ]
      }
    },
    {
      "type": "Feature",
      "properties": {
        "norad_id": 32958,
        "name": "FENGYUN 3A",
        "group": "weather",
        "lat": 51.48673772694247,
        "lon": 128.05821947883558,
        "alt_km": 826.8296457012857,
        "timestamp": "2025-12-23T16:57:11.987867+00:00",
        "meta_object_name": "FENGYUN 3A",
        "meta_object_id": "2008-026A",
        "meta_epoch": "2025-12-22T20:03:12.943008",
        "meta_mean_motion": 14.19517515,
        "meta_eccentricity": 0.00076474,
        "meta_inclination": 98.6712,
        "meta_ra_of_asc_node": 296.1503,
        "meta_arg_of_pericenter": 277.7214,
        "meta_mean_anomaly": 82.3094,
        "meta_ephemeris_type": 0,
        "meta_classification_type": "U",
        "meta_norad_cat_id": 32958,
        "meta_element_set_no": 999,
        "meta_rev_at_epoch": 91038,
        "meta_bstar": 5.9361681e-05,
        "meta_mean_motion_dot": 8.2e-07,
        "meta_mean_motion_ddot": 0,
        "tle_line1": "1 32958U 08026A   25356.83556647  .00000082  00000+0  59362-4 0  9996",
        "tle_line2": "2 32958  98.6712 296.1503 0007647 277.7214  82.3094 14.19517515910388"
      },
      "geometry": {
        "type": "Point",
        "coordinates": [
          128.05821947883558,
          51.48673772694247
        ]
      }
    },
    {
      "type": "Feature",
      "properties": {
        "norad_id": 35491,
        "name": "GOES 14",
        "group": "weather",
        "lat": 0.6943525732002357,
        "lon": -129.8786542185454,
        "alt_km": 35833.25311628761,
        "timestamp": "2025-12-23T16:57:11.987882+00:00",
        "meta_object_name": "GOES 14",
        "meta_object_id": "2009-033A",
        "meta_epoch": "2025-12-23T05:51:50.753952",
        "meta_mean_motion": 1.00097012,
        "meta_eccentricity": 5.808e-05,
        "meta_inclination": 1.2294,
        "meta_ra_of_asc_node": 85.2984,
        "meta_arg_of_pericenter": 188.1226,
        "meta_mean_anomaly": 150.2002,
        "meta_ephemeris_type": 0,
        "meta_classification_type": "U",
        "meta_norad_cat_id": 35491,
        "meta_element_set_no": 999,
        "meta_rev_at_epoch": 482,
        "meta_bstar": 0,
        "meta_mean_motion_dot": 2.9e-07,
        "meta_mean_motion_ddot": 0,
        "tle_line1": "1 35491U 09033A   25357.24433743  .00000029  00000+0  00000+0 0  9998",
        "tle_line2": "2 35491   1.2294  85.2984 0000580 188.1226 150.2002  1.00097012  4823"
      },
      "geometry": {
        "type": "Point",
        "coordinates": [
          -129.8786542185454,
          0.6943525732002357
        ]
      }
    },
    {
      "type": "Feature",
      "properties": {
        "norad_id": 35951,
        "name": "DMSP 5D-3 F18 (USA 210)",
        "group": "weather",
        "lat": 80.1182141346915,
        "lon": -142.0586433593639,
        "alt_km": 831.472469130862,
        "timestamp": "2025-12-23T16:57:11.987895+00:00",
        "meta_object_name": "DMSP 5D-3 F18 (USA 210)",
        "meta_object_id": "2009-057A",
        "meta_epoch": "2025-12-23T02:55:53.256288",
        "meta_mean_motion": 14.14775935,
        "meta_eccentricity": 0.00117719,
        "meta_inclination": 98.8847,
        "meta_ra_of_asc_node": 333.4715,
        "meta_arg_of_pericenter": 35.3507,
        "meta_mean_anomaly": 324.8444,
        "meta_ephemeris_type": 0,
        "meta_classification_type": "U",
        "meta_norad_cat_id": 35951,
        "meta_element_set_no": 999,
        "meta_rev_at_epoch": 83469,
        "meta_bstar": 0.0001688268,
        "meta_mean_motion_dot": 2.81e-06,
        "meta_mean_motion_ddot": 0,
        "tle_line1": "1 35951U 09057A   25357.12214417  .00000281  00000+0  16883-3 0  9997",
        "tle_line2": "2 35951  98.8847 333.4715 0011771  35.3507 324.8444 14.14775935834690"
      },
      "geometry": {
        "type": "Point",
        "coordinates": [
          -142.0586433593639,
          80.1182141346915
        ]
      }
    },
    {
      "type": "Feature",
      "properties": {
        "norad_id": 36411,
        "name": "EWS-G2 (GOES 15)",
        "group": "weather",
        "lat": -0.5011079598545586,
        "lon": 48.18375826751232,
        "alt_km": 35805.0721231858,
        "timestamp": "2025-12-23T16:57:11.987909+00:00",
        "meta_object_name": "EWS-G2 (GOES 15)",
        "meta_object_id": "2010-008A",
        "meta_epoch": "2025-12-23T04:42:38.708640",
        "meta_mean_motion": 1.00271104,
        "meta_eccentricity": 0.00055146,
        "meta_inclination": 0.838,
        "meta_ra_of_asc_node": 86.0715,
        "meta_arg_of_pericenter": 178.5154,
        "meta_mean_anomaly": 319.4215,
        "meta_ephemeris_type": 0,
        "meta_classification_type": "U",
        "meta_norad_cat_id": 36411,
        "meta_element_set_no": 999,
        "meta_rev_at_epoch": 5787,
        "meta_bstar": 0,
        "meta_mean_motion_dot": 5.9e-07,
        "meta_mean_motion_ddot": 0,
        "tle_line1": "1 36411U 10008A   25357.19628135  .00000059  00000+0  00000+0 0  9993",
        "tle_line2": "2 36411   0.8380  86.0715 0005514 178.5154 319.4215  1.00271104 57877"
      },
      "geometry": {
        "type": "Point",
        "coordinates": [
          48.18375826751232,
          -0.5011079598545586
        ]
      }
    }
  ]
}